NORAD_CAT_ID,OBJECT_NAME,OBJECT_TYPE,EPOCH,MEAN_MOTION,ECCENTRICITY,INCLINATION,RA_OF_ASC_NODE,ARG_OF_PERICENTER,MEAN_ANOMALY,BSTAR,MEAN_MOTION_DOT,MEAN_MOTION_DDOT,TLE_LINE0,TLE_LINE1,TLE_LINE2,SEMIMAJOR_AXIS,PERIOD,APOGEE,PERIGEE,DECAYED
53853.0,STARLINK-4794,PAYLOAD,2023-11-11 19:23:40,15.0885146,0.0001312,53.2146,144.591,102.3171,257.7968,2.2129e-05,6.4e-07,0.0,0 STARLINK-4794,1 53853U 22114AM  23315.80811040  .00000064  00000-0  22129-4 0  9990,2 53853  53.2146 144.5910 0001312 102.3171 257.7968 15.08851460 64825,6917.845,95.437,540.618,538.803,0.0
53853.0,STARLINK-4794,PAYLOAD,2023-11-12 19:14:28,15.08841697,0.000131,53.216,140.1301,98.1779,261.9361,6.1278e-05,6.88e-06,0.0,0 STARLINK-4794,1 53853U 22114AM  23316.80171404  .00000688  00000-0  61278-4 0  9994,2 53853  53.2160 140.1301 0001310  98.1779 261.9361 15.08841697 64433,6917.875,95.437,540.646,538.834,0.0
53853.0,STARLINK-4794,PAYLOAD,2023-11-13 11:08:19,15.08840687,0.0001249,53.2159,137.1575,95.3708,264.7427,7.5054e-05,9.07e-06,0.0,0 STARLINK-4794,1 53853U 22114AM  23317.46411368  .00000907  00000-0  75054-4 0  9994,2 53853  53.2159 137.1575 0001249  95.3708 264.7427 15.08840687 65075,6917.878,95.438,540.607,538.879,0.0
53853.0,STARLINK-4794,PAYLOAD,2023-11-13 22:16:00,15.08845295,0.0001229,53.2156,135.0769,92.5114,267.6019,9.38e-05,1.205e-05,0.0,0 STARLINK-4794,1 53853U 22114AM  23317.92778927  .00001205  00000-0  93800-4 0  9993,2 53853  53.2156 135.0769 0001229  92.5114 267.6019 15.08845295 65149,6917.864,95.437,540.579,538.879,0.0
53853.0,STARLINK-4794,PAYLOAD,2023-11-14 04:37:33,15.08839444,0.0001214,53.2154,133.8868,85.9059,274.2072,3.4497e-05,2.61e-06,0.0,0 STARLINK-4794,1 53853U 22114AM  23318.19275438  .00000261  00000-0  34497-4 0  9990,2 53853  53.2154 133.8868 0001214  85.9059 274.2072 15.08839444 64647,6917.882,95.438,540.587,538.907,0.0
53853.0,STARLINK-4794,PAYLOAD,2023-11-14 12:34:29,15.08837428,0.0001286,53.2151,132.4009,82.9472,277.1666,6.473e-06,-1.85e-06,0.0,0 STARLINK-4794,1 53853U 22114AM  23318.52395826 -.00000185  00000-0  64730-5 0  9991,2 53853  53.2151 132.4009 0001286  82.9472 277.1666 15.08837428 65238,6917.888,95.438,540.643,538.864,0.0
53853.0,STARLINK-4794,PAYLOAD,2023-11-14 18:56:02,15.08836785,0.0001198,53.2158,131.2114,89.9647,270.1482,3.308e-05,2.39e-06,0.0,0 STARLINK-4794,1 53853U 22114AM  23318.78891751  .00000239  00000-0  33080-4 0  9999,2 53853  53.2158 131.2114 0001198  89.9647 270.1482 15.08836785 65270,6917.89,95.438,540.584,538.926,0.0
53853.0,STARLINK-4794,PAYLOAD,2023-11-15 10:49:53,15.08839999,0.0001418,53.2152,128.2378,95.1402,264.9752,4.5543e-05,4.37e-06,0.0,0 STARLINK-4794,1 53853U 22114AM  23319.45131599  .00000437  00000-0  45543-4 0  9998,2 53853  53.2152 128.2378 0001418  95.1402 264.9752 15.08839999 64837,6917.88,95.438,540.726,538.764,0.0
53853.0,STARLINK-4794,PAYLOAD,2023-11-16 10:40:40,15.08838072,0.000129,53.2153,123.7772,94.633,265.481,9.2393e-05,1.183e-05,0.0,0 STARLINK-4794,1 53853U 22114AM  23320.44491665  .00001183  00000-0  92393-4 0  9996,2 53853  53.2153 123.7772 0001290  94.6330 265.4810 15.08838072 65527,6917.886,95.438,540.644,538.859,0.0
53853.0,STARLINK-4794,PAYLOAD,2023-11-17 04:09:55,15.08838888,0.00015,53.2154,120.5048,88.4429,271.6735,7.4023e-05,8.9e-06,0.0,0 STARLINK-4794,1 53853U 22114AM  23321.17355799  .00000890  00000-0  74023-4 0  9998,2 53853  53.2154 120.5048 0001500  88.4429 271.6735 15.08838888 65095,6917.884,95.438,540.786,538.711,0.0
53853.0,STARLINK-4794,PAYLOAD,2023-11-17 10:31:27,15.08839377,0.0001411,53.2148,119.3155,88.9844,271.131,6.0135e-05,6.69e-06,0.0,0 STARLINK-4794,1 53853U 22114AM  23321.43851807  .00000669  00000-0  60135-4 0  9991,2 53853  53.2148 119.3155 0001411  88.9844 271.1310 15.08839377 65672,6917.882,95.438,540.723,538.771,0.0
53853.0,STARLINK-4794,PAYLOAD,2023-11-17 16:53:00,15.08839914,0.0001389,53.2146,118.126,89.0745,271.0406,5.9348e-05,6.57e-06,0.0,0 STARLINK-4794,1 53853U 22114AM  23321.70347758  .00000657  00000-0  59348-4 0  9997,2 53853  53.2146 118.1260 0001389  89.0745 271.0406 15.08839914 65717,6917.881,95.438,540.707,538.785,0.0
53853.0,STARLINK-4794,PAYLOAD,2023-11-18 04:00:42,15.08840091,0.0001348,53.2153,116.0448,88.233,271.8816,5.4322e-05,5.77e-06,0.0,0 STARLINK-4794,1 53853U 22114AM  23322.16715743  .00000577  00000-0  54322-4 0  9999,2 53853  53.2153 116.0448 0001348  88.2330 271.8816 15.08840091 65784,6917.88,95.438,540.678,538.813,0.0
53853.0,STARLINK-4794,PAYLOAD,2023-11-18 19:54:33,15.08842622,0.0001316,53.2154,113.0714,86.4458,273.6685,6.8345e-05,8e-06,0.0,0 STARLINK-4794,1 53853U 22114AM  23322.82955520  .00000800  00000-0  68345-4 0  9990,2 53853  53.2154 113.0714 0001316  86.4458 273.6685 15.08842622 65342,6917.872,95.437,540.648,538.827,0.0
53853.0,STARLINK-4794,PAYLOAD,2023-11-19 13:23:47,15.08842723,0.0001308,53.2154,109.8001,86.0549,274.0593,7.8589e-05,9.63e-06,0.0,0 STARLINK-4794,1 53853U 22114AM  23323.55819390  .00000963  00000-0  78589-4 0  9996,2 53853  53.2154 109.8001 0001308  86.0549 274.0593 15.08842723 65998,6917.872,95.437,540.642,538.832,0.0
53853.0,STARLINK-4794,PAYLOAD,2023-11-19 16:34:34,15.0884487,0.0001312,53.2164,109.2055,86.6161,273.4981,8.1597e-05,1.011e-05,0.0,0 STARLINK-4794,1 53853U 22114AM  23323.69067235  .00001011  00000-0  81597-4 0  9992,2 53853  53.2164 109.2055 0001312  86.6161 273.4981 15.08844870 66016,6917.866,95.437,540.638,538.823,0.0
53853.0,STARLINK-4794,PAYLOAD,2023-11-20 08:28:25,15.08838784,0.0001295,53.2176,106.2342,90.3157,269.7983,3.2584e-05,2.31e-06,0.0,0 STARLINK-4794,1 53853U 22114AM  23324.35307690  .00000231  00000-0  32584-4 0  9993,2 53853  53.2176 106.2342 0001295  90.3157 269.7983 15.08838784 65579,6917.884,95.438,540.645,538.853,0.0
53853.0,STARLINK-4794,PAYLOAD,2023-11-20 13:14:35,15.08837459,0.000136,53.2165,105.3396,90.7033,269.4115,-4.8813e-06,-3.66e-06,0.0,0 STARLINK-4794,1 53853U 22114AM  23324.55179939 -.00000366  00000-0 -48813-5 0  9992,2 53853  53.2165 105.3396 0001360  90.7033 269.4115 15.08837459 66142,6917.888,95.438,540.694,538.812,0.0
53853.0,STARLINK-4794,PAYLOAD,2023-11-20 16:25:21,15.08838355,0.0001316,53.2167,104.7458,89.1563,270.9579,1.7376e-05,-1.1e-07,0.0,0 STARLINK-4794,1 53853U 22114AM  23324.68427809 -.00000011  00000-0  17376-4 0  9993,2 53853  53.2167 104.7458 0001316  89.1563 270.9579 15.08838355 66166,6917.885,95.438,540.661,538.84,0.0
53853.0,STARLINK-4794,PAYLOAD,2023-11-21 09:54:36,15.08840202,0.0001255,53.2168,101.4749,91.0615,269.0521,1.5512e-05,-4.1e-07,0.0,0 STARLINK-4794,1 53853U 22114AM  23325.41291765 -.00000041  00000-0  15512-4 0  9998,2 53853  53.2168 101.4749 0001255  91.0615 269.0521 15.08840202 65738,6917.88,95.438,540.613,538.877,0.0
53853.0,STARLINK-4794,PAYLOAD,2023-11-21 13:05:22,15.08841667,0.0001221,53.217,100.8802,90.117,269.9962,2.7526e-05,1.5e-06,0.0,0 STARLINK-4794,1 53853U 22114AM  23325.54539666  .00000150  00000-0  27526-4 0  9995,2 53853  53.2170 100.8802 0001221  90.1170 269.9962 15.08841667 66299,6917.875,95.437,540.585,538.896,0.0
53853.0,STARLINK-4794,PAYLOAD,2023-11-21 17:51:31,15.08847642,0.0001289,53.217,99.9878,92.5906,267.5234,8.2851e-05,1.031e-05,0.0,0 STARLINK-4794,1 53853U 22114AM  23325.74411103  .00001031  00000-0  82851-4 0  9993,2 53853  53.2170  99.9878 0001289  92.5906 267.5234 15.08847642 66326,6917.857,95.437,540.614,538.83,0.0
53853.0,STARLINK-4794,PAYLOAD,2023-11-22 08:09:59,15.08838492,0.0001628,53.2172,97.3092,125.6729,234.4414,7.9384e-05,9.76e-06,0.0,0 STARLINK-4794,1 53853U 22114AM  23326.34027566  .00000976  00000-0  79384-4 0  9990,2 53853  53.2172  97.3092 0001628 125.6729 234.4414 15.08838492 65871,6917.885,95.438,540.876,538.624,0.0
53853.0,STARLINK-4794,PAYLOAD,2023-11-22 14:31:32,15.08843014,0.0001422,53.217,96.1222,81.3197,278.7956,0.00011721,1.578e-05,0.0,0 STARLINK-4794,1 53853U 22114AM  23326.60523368  .00001578  00000-0  11721-3 0  9999,2 53853  53.2170  96.1222 0001422  81.3197 278.7956 15.08843014 66453,6917.871,95.437,540.72,538.752,0.0
53853.0,STARLINK-4794,PAYLOAD,2023-11-23 14:22:20,15.08834894,0.0001448,53.2182,91.6615,100.1923,259.9233,-2.7852e-05,-7.31e-06,0.0,0 STARLINK-4794,1 53853U 22114AM  23327.59884669 -.00000731  00000-0 -27852-4 0  9997,2 53853  53.2182  91.6615 0001448 100.1923 259.9233 15.08834894 66609,6917.896,95.438,540.763,538.759,0.0
53853.0,STARLINK-4794,PAYLOAD,2023-11-23 15:57:43,15.08835014,0.0001446,53.2181,91.364,89.2737,270.8421,-2.4322e-05,-6.75e-06,0.0,0 STARLINK-4794,1 53853U 22114AM  23327.66508735 -.00000675  00000-0 -24322-4 0  9998,2 53853  53.2181  91.3640 0001446  89.2737 270.8421 15.08835014 66078,6917.896,95.438,540.761,538.76,0.0
53853.0,STARLINK-4794,PAYLOAD,2023-11-24 14:13:06,15.08844894,0.0001562,53.2181,87.2031,85.7041,274.4129,0.00010354,1.36e-05,0.0,0 STARLINK-4794,1 53853U 22114AM  23328.59244061  .00001360  00000-0  10354-3 0  9999,2 53853  53.2181  87.2031 0001562  85.7041 274.4129 15.08844894 66750,6917.865,95.437,540.811,538.65,0.0
53853.0,STARLINK-4794,PAYLOAD,2023-11-24 15:48:30,15.08846042,0.0001819,53.2175,86.906,79.1306,280.9891,0.00018559,2.667e-05,0.0,0 STARLINK-4794,1 53853U 22114AM  23328.65868177  .00002667  00000-0  18559-3 0  9992,2 53853  53.2175  86.9060 0001819  79.1306 280.9891 15.08846042 66224,6917.862,95.437,540.985,538.469,0.0
53853.0,STARLINK-4794,PAYLOAD,2023-11-25 14:03:53,15.08854919,0.0001399,53.2161,82.7402,94.3453,265.7699,0.00036166,5.475e-05,0.0,0 STARLINK-4794,1 53853U 22114AM  23329.58603682  .00005475  00000-0  36166-3 0  9997,2 53853  53.2161  82.7402 0001399  94.3453 265.7699 15.08854919 66902,6917.835,95.437,540.668,538.732,0.0
53853.0,STARLINK-4794,PAYLOAD,2023-11-26 12:19:17,15.08851562,0.0001542,53.2157,78.5783,73.9204,286.1958,0.00010938,1.454e-05,0.0,0 STARLINK-4794,1 53853U 22114AM  23330.51339429  .00001454  00000-0  10938-3 0  9999,2 53853  53.2157  78.5783 0001542  73.9204 286.1958 15.08851562 66501,6917.845,95.437,540.777,538.643,0.0
